OBJECT_NAME,OBJECT_ID,EPOCH,MEAN_MOTION,ECCENTRICITY,INCLINATION,RA_OF_ASC_NODE,ARG_OF_PERICENTER,MEAN_ANOMALY,EPHEMERIS_TYPE,CLASSIFICATION_TYPE,NORAD_CAT_ID,ELEMENT_SET_NO,REV_AT_EPOCH,BSTAR,MEAN_MOTION_DOT,MEAN_MOTION_DDOT
STARLINK-6289,2023-061AL,2025-02-16T21:40:24.913632,15.02532549,.0000811,43.0020,120.5964,282.7764,77.2988,0,U,56408,999,9887,-.87939E-4,-.1391E-4,0
STARLINK-6241,2023-061AM,2025-02-17T04:22:30.331200,15.02532588,.0000936,43.0019,119.2675,291.7542,68.3201,0,U,56409,999,9920,.45944E-4,.417E-5,0
STARLINK-6281,2023-061AN,2025-02-17T12:00:23.428224,15.02520139,.0001418,43.0037,117.3513,271.4244,88.6436,0,U,56410,999,9925,-.1662E-3,-.2447E-4,0
STARLINK-6279,2023-061AP,2025-02-16T21:56:24.946368,15.02547377,.0000898,43.0014,120.6960,271.6919,88.3820,0,U,56411,999,9887,.46875E-3,.6136E-4,0
STARLINK-6278,2023-061AQ,2025-02-17T03:53:44.390976,15.02527576,.0001519,43.0027,119.1146,278.9142,81.1529,0,U,56412,999,9920,.10141E-3,.1166E-4,0
STARLINK-6258,2023-061AR,2025-02-16T21:43:36.424416,15.02535386,.0001252,43.0048,120.6274,268.4918,91.5781,0,U,56413,999,9916,.13805E-3,.1662E-4,0
STARLINK-5136,2023-061AS,2025-02-17T11:45:59.021280,15.02530322,.0001385,43.0031,117.2763,277.0357,83.0328,0,U,56414,999,9925,.16253E-3,.1992E-4,0
STARLINK-6268,2023-061AT,2025-02-17T03:58:32.022624,15.02529342,.0000992,43.0018,119.1405,273.8487,86.2241,0,U,56415,999,9920,.13965E-4,-.15E-6,0
STARLINK-6260,2023-061AU,2025-02-16T21:00:59.781024,15.02533609,.0001006,43.0014,108.2593,273.8189,86.2539,0,U,56416,999,9930,.20777E-4,.77E-6,0
STARLINK-6261,2023-061AV,2025-02-17T11:47:34.668672,15.02536863,.0001553,43.0044,117.2817,272.6063,87.4602,0,U,56417,999,9925,.17349E-3,.2141E-4,0
STARLINK-5356,2023-061AW,2025-02-17T11:03:22.067712,15.02541403,.0000761,43.0014,104.9085,268.4745,91.6010,0,U,56418,999,9939,-.5033E-4,-.883E-5,0
STARLINK-5350,2023-061AX,2025-02-17T11:42:43.225056,15.02575705,.0000783,43.0006,117.2551,193.8574,166.2247,0,U,56419,999,9925,.34452E-3,.4458E-4,0
STARLINK-6272,2023-061AY,2025-02-17T04:35:39.733440,15.02530451,.0001329,43.0020,106.3282,280.5535,79.5158,0,U,56420,999,9935,.13493E-3,.1619E-4,0
STARLINK-6270,2023-061AZ,2025-02-17T11:27:23.669856,15.02501850,.0000911,43.0026,105.0303,263.0474,97.0265,0,U,56421,999,9939,-.21553E-3,-.3111E-4,0
STARLINK-6236,2023-061BA,2025-02-17T04:26:04.198848,15.02535954,.0001169,43.0037,106.2790,265.6524,94.4185,0,U,56422,999,9935,.49199E-4,.461E-5,0
STARLINK-6239,2023-061BB,2025-02-16T20:32:13.932384,15.02529460,.0000672,43.0032,108.1078,283.2102,76.8665,0,U,56423,999,9930,.69016E-4,.729E-5,0
STARLINK-6242,2023-061BC,2025-02-17T04:16:28.956288,15.02549141,.0000784,43.0017,106.2272,290.7994,69.2764,0,U,56424,999,9935,.17679E-3,.2186E-4,0
STARLINK-6224,2023-061BD,2025-02-17T10:44:11.268096,15.02539615,.0001106,43.0037,104.8089,275.6684,84.4032,0,U,56425,999,9939,.33419E-3,.4314E-4,0
STARLINK-5352,2023-061BE,2025-02-16T21:24:57.799296,15.02545727,.0001366,43.0029,108.3652,257.2637,102.8052,0,U,56426,999,9901,-.14262E-3,-.213E-4,0
STARLINK-5724,2023-061BF,2025-02-17T11:32:07.158624,15.02579080,.0001595,43.0030,105.0443,267.0966,92.9693,0,U,56427,999,9939,-.62905E-3,-.87E-4,0
STARLINK-6238,2023-061BG,2025-02-16T15:21:03.699360,15.02539567,.0001168,43.0015,109.0651,268.4918,91.5790,0,U,56428,999,9927,.15884E-4,.11E-6,0
STARLINK-6264,2023-061BH,2025-02-17T04:02:05.599104,15.02537113,.0001403,43.0035,106.1504,269.2613,90.8068,0,U,56429,999,9935,.52476E-4,.505E-5,0
STARLINK-5990,2023-064A,2025-02-17T03:30:52.725312,14.98330200,.0002915,70.0002,36.6191,270.6717,89.4108,0,U,56448,999,9785,.13249E-4,.65E-6,0
STARLINK-5993,2023-064B,2025-02-17T05:36:49.754016,14.98329708,.0002873,69.9999,36.5206,269.1249,90.9580,0,U,56449,999,9786,.3322E-4,.303E-5,0
STARLINK-5970,2023-064C,2025-02-17T05:00:59.946624,14.98331117,.0002896,70.0002,36.4353,270.5737,89.5090,0,U,56450,999,9786,.51606E-4,.523E-5,0
STARLINK-5985,2023-064D,2025-02-16T16:41:44.496096,14.98330003,.0002976,70.0000,37.8533,269.6714,90.4104,0,U,56451,999,9742,.62891E-6,-.85E-6,0
STARLINK-5986,2023-064E,2025-02-16T16:35:44.070720,14.98338506,.0002869,70.0000,37.8393,270.0719,90.0111,0,U,56452,999,9742,-.24696E-5,-.122E-5,0
STARLINK-5935,2023-064F,2025-02-16T16:29:43.174464,14.98330654,.0002938,70.0003,37.8248,270.1694,89.9129,0,U,56453,999,9742,.18521E-4,.128E-5,0
