STARLINK-6289           
1 56408U 23061AL  25047.90306613 -.00001391  00000+0 -87939-4 0  9996
2 56408  43.0020 120.5964 0000811 282.7764  77.2988 15.02532549 98876
STARLINK-6241           
1 56409U 23061AM  25048.18229550  .00000417  00000+0  45944-4 0  9998
2 56409  43.0019 119.2675 0000936 291.7542  68.3201 15.02532588 99201
STARLINK-6281           
1 56410U 23061AN  25048.50027116 -.00002447  00000+0 -16620-3 0  9995
2 56410  43.0037 117.3513 0001418 271.4244  88.6436 15.02520139 99252
STARLINK-6279           
1 56411U 23061AP  25047.91417762  .00006136  00000+0  46875-3 0  9992
2 56411  43.0014 120.6960 0000898 271.6919  88.3820 15.02547377 98877
STARLINK-6278           
1 56412U 23061AQ  25048.16231934  .00001166  00000+0  10141-3 0  9991
2 56412  43.0027 119.1146 0001519 278.9142  81.1529 15.02527576 99204
STARLINK-6258           
1 56413U 23061AR  25047.90528269  .00001662  00000+0  13805-3 0  9994
2 56413  43.0048 120.6274 0001252 268.4918  91.5781 15.02535386 99164
STARLINK-5136           
1 56414U 23061AS  25048.49026645  .00001992  00000+0  16253-3 0  9997
2 56414  43.0031 117.2763 0001385 277.0357  83.0328 15.02530322 99250
STARLINK-6268           
1 56415U 23061AT  25048.16564841 -.00000015  00000+0  13965-4 0  9991
2 56415  43.0018 119.1405 0000992 273.8487  86.2241 15.02529342 99205
STARLINK-6260           
1 56416U 23061AU  25047.87569191  .00000077  00000+0  20777-4 0  9998
2 56416  43.0014 108.2593 0001006 273.8189  86.2539 15.02533609 99307
STARLINK-6261           
1 56417U 23061AV  25048.49137348  .00002141  00000+0  17349-3 0  9997
2 56417  43.0044 117.2817 0001553 272.6063  87.4602 15.02536863 99258
STARLINK-5356           
1 56418U 23061AW  25048.46067208 -.00000883  00000+0 -50330-4 0  9993
2 56418  43.0014 104.9085 0000761 268.4745  91.6010 15.02541403 99397
STARLINK-5350           
1 56419U 23061AX  25048.48800029  .00004458  00000+0  34452-3 0  9998
2 56419  43.0006 117.2551 0000783 193.8574 166.2247 15.02575705 99257
STARLINK-6272           
1 56420U 23061AY  25048.19143210  .00001619  00000+0  13493-3 0  9998
2 56420  43.0020 106.3282 0001329 280.5535  79.5158 15.02530451 99350
STARLINK-6270           
1 56421U 23061AZ  25048.47735729 -.00003111  00000+0 -21553-3 0  9999
2 56421  43.0026 105.0303 0000911 263.0474  97.0265 15.02501850 99390
STARLINK-6236           
1 56422U 23061BA  25048.18477082  .00000461  00000+0  49199-4 0  9993
2 56422  43.0037 106.2790 0001169 265.6524  94.4185 15.02535954 99356
STARLINK-6239           
1 56423U 23061BB  25047.85571681  .00000729  00000+0  69016-4 0  9994
2 56423  43.0032 108.1078 0000672 283.2102  76.8665 15.02529460 99305
STARLINK-6242           
1 56424U 23061BC  25048.17811292  .00002186  00000+0  17679-3 0  9992
2 56424  43.0017 106.2272 0000784 290.7994  69.2764 15.02549141 99359
STARLINK-6224           
1 56425U 23061BD  25048.44735264  .00004314  00000+0  33419-3 0  9992
2 56425  43.0037 104.8089 0001106 275.6684  84.4032 15.02539615 99395
STARLINK-5352           
1 56426U 23061BE  25047.89233564 -.00002130  00000+0 -14262-3 0  9998
2 56426  43.0029 108.3652 0001366 257.2637 102.8052 15.02545727 99011
STARLINK-5724           
1 56427U 23061BF  25048.48063841 -.00008700  00000+0 -62905-3 0  9990
2 56427  43.0030 105.0443 0001595 267.0966  92.9693 15.02579080 99394
STARLINK-6238           
1 56428U 23061BG  25047.63962615  .00000011  00000+0  15884-4 0  9994
2 56428  43.0015 109.0651 0001168 268.4918  91.5790 15.02539567 99277
STARLINK-6264           
1 56429U 23061BH  25048.16812036  .00000505  00000+0  52476-4 0  9991
2 56429  43.0035 106.1504 0001403 269.2613  90.8068 15.02537113 99352
STARLINK-5990           
1 56448U 23064A   25048.14644358  .00000065  00000+0  13249-4 0  9999
2 56448  70.0002  36.6191 0002915 270.6717  89.4108 14.98330200 97850
STARLINK-5993           
1 56449U 23064B   25048.23390919  .00000303  00000+0  33220-4 0  9997
2 56449  69.9999  36.5206 0002873 269.1249  90.9580 14.98329708 97868
STARLINK-5970           
1 56450U 23064C   25048.20902716  .00000523  00000+0  51606-4 0  9992
2 56450  70.0002  36.4353 0002896 270.5737  89.5090 14.98331117 97860
STARLINK-5985           
1 56451U 23064D   25047.69565389 -.00000085  00000+0  62891-6 0  9990
2 56451  70.0000  37.8533 0002976 269.6714  90.4104 14.98330003 97429
STARLINK-5986           
1 56452U 23064E   25047.69148230 -.00000122  00000+0 -24696-5 0  9996
2 56452  70.0000  37.8393 0002869 270.0719  90.0111 14.98338506 97426
STARLINK-5935           
1 56453U 23064F   25047.68730526  .00000128  00000+0  18521-4 0  9994
2 56453  70.0003  37.8248 0002938 270.1694  89.9129 14.98330654 97421
